[{"OBJECT_NAME":"FORMOSAT 7-4","OBJECT_ID":"2019-036M","EPOCH":"2026-03-09T23:18:59.695200","MEAN_MOTION":14.96015542,"ECCENTRICITY":0.00014118,"INCLINATION":23.9994,"RA_OF_ASC_NODE":43.1446,"ARG_OF_PERICENTER":104.6737,"MEAN_ANOMALY":255.392,"EPHEMERIS_TYPE":0,"CLASSIFICATION_TYPE":"U","NORAD_CAT_ID":44350,"ELEMENT_SET_NO":999,"REV_AT_EPOCH":36919,"BSTAR":0.00031042546,"MEAN_MOTION_DOT":3.87e-5,"MEAN_MOTION_DDOT":0},{"OBJECT_NAME":"FENGYUN 1C DEB","OBJECT_ID":"1999-025CKZ","EPOCH":"2026-02-15T20:48:10.966176","MEAN_MOTION":14.69381024,"ECCENTRICITY":0.01433438,"INCLINATION":98.7052,"RA_OF_ASC_NODE":280.8773,"ARG_OF_PERICENTER":16.818,"MEAN_ANOMALY":343.7704,"EPHEMERIS_TYPE":0,"CLASSIFICATION_TYPE":"U","NORAD_CAT_ID":31898,"ELEMENT_SET_NO":999,"REV_AT_EPOCH":66668,"BSTAR":0.00094596182,"MEAN_MOTION_DOT":6.49e-5,"MEAN_MOTION_DDOT":0}]
